STARLINK-4188           
1 52843U 22062P   23266.77025264  .00007959  00000+0  51728-3 0  9991
2 52843  53.2168 105.0378 0001238  99.2718 260.8415 15.08861341 70722
STARLINK-4208           
1 52844U 22062Q   23266.78497701  .00000203  00000+0  30858-4 0  9999
2 52844  53.2177 104.9751 0001534 105.6312 254.4849 15.08841632 70728
STARLINK-4168           
1 52845U 22062R   23266.77394217  .00001851  00000+0  13433-3 0  9996
2 52845  53.2170 105.0869 0001264  89.0547 271.0590 15.08846219 70723
STARLINK-4212           
1 52846U 22062S   23266.77489221  .00000078  00000+0  23009-4 0  9998
2 52846  53.2163 105.0244 0001328  96.0694 264.0449 15.08844953 70723
STARLINK-4206           
1 52847U 22062T   23266.76289562  .00000042  00000+0  20739-4 0  9992
2 52847  53.2172 105.0712 0001518  86.5419 273.5747 15.08845051 70720
STARLINK-4202           
1 52848U 22062U   23266.78129195  .00001047  00000+0  83878-4 0  9999
2 52848  53.2168 104.9870 0001294 106.3315 253.7820 15.08845789 70726
STARLINK-4197           
1 52849U 22062V   23266.95517029  .00003091  00000+0  21212-3 0  9990
2 52849  53.2167  94.2082 0001390  86.8091 273.3061 15.08850819 70884
STARLINK-4187           
1 52850U 22062W   23266.76657259  .00002447  00000+0  17176-3 0  9999
2 52850  53.2164 105.0514 0001304  85.5669 274.5472 15.08847616 70729
STARLINK-3809           
1 52851U 22062X   23266.75277107  .00001384  00000+0  10499-3 0  9999
2 52851  53.2170  95.1123 0001576 113.0165 247.0993 15.08848783 70854
STARLINK-4184           
1 52852U 22062Y   23266.76013673 -.00000005  00000+0  17780-4 0  9998
2 52852  53.2170  95.0826 0001287  91.6176 268.4964 15.08839874 70852
STARLINK-4189           
1 52853U 22062Z   23267.47132360 -.00000046  00000+0  15201-4 0  9994
2 52853  53.2169  91.8583 0001785 106.6525 253.4663 15.08846674 70961
STARLINK-4204           
1 52854U 22062AA  23266.74909466  .00002021  00000+0  14502-3 0  9999
2 52854  53.2161  95.1299 0001300  95.8469 264.2671 15.08849555 70852
STARLINK-4209           
1 52855U 22062AB  23266.80429272  .00001715  00000+0  12581-3 0  9993
2 52855  53.2162  94.8827 0001392  85.6234 274.4917 15.08846787 70866
STARLINK-4201           
1 52856U 22062AC  23266.80797284  .00001544  00000+0  11508-3 0  9993
2 52856  53.2161  94.8625 0001135  88.4512 271.6610 15.08845588 70864
STARLINK-4199           
1 52857U 22062AD  23266.79693076 -.00001301  00000+0 -63635-4 0  9998
2 52857  53.2158  94.9142 0001156  90.5337 269.5788 15.08844603 70867
STARLINK-4198           
1 52858U 22062AE  23266.80525181  .00001442  00000+0  10863-3 0  9990
2 52858  53.2171  94.8777 0001330  90.9496 269.1648 15.08843507 70863
STARLINK-4196           
1 52859U 22062AF  23266.52829809  .00004794  00000+0  31898-3 0  9998
2 52859  53.2153  96.1207 0001313  77.8336 282.2803 15.08855896 70330
STARLINK-4191           
1 52860U 22062AG  23266.80061389  .00001781  00000+0  12993-3 0  9990
2 52860  53.2161  94.8999 0001373  97.1162 262.9986 15.08851828 70868
STARLINK-4112           
1 52861U 22062AH  23267.30573055  .00001561  00000+0  11610-3 0  9996
2 52861  53.2159  92.6445 0001081 119.9239 240.1861 15.08852268 70940
STARLINK-4010           
1 52862U 22062AJ  23266.52461714  .00003761  00000+0  25430-3 0  9997
2 52862  53.2160  96.1401 0001349  81.8422 278.2723 15.08838133 70339
STARLINK-4270           
1 52863U 22062AK  23266.78221547 -.00000001  00000+0  18054-4 0  9994
2 52863  53.2161  94.9844 0001228  84.6748 275.4384 15.08841813 70865
STARLINK-4267           
1 52864U 22062AL  23266.52093491  .00001662  00000+0  12248-3 0  9993
2 52864  53.2167  96.1544 0001607  84.1213 275.9963 15.08845149 70332
STARLINK-4274           
1 52865U 22062AM  23266.50621582  .00003590  00000+0  24353-3 0  9992
2 52865  53.2159  96.2235 0001410  82.8377 277.2775 15.08839198 70333
STARLINK-4272           
1 52866U 22062AN  23266.24861649  .00002655  00000+0  18481-3 0  9990
2 52866  53.2158  97.3783 0001419  89.5899 270.5255 15.08843776 70296
STARLINK-4126           
1 52867U 22062AP  23266.76381399 -.00000516  00000+0 -14342-4 0  9996
2 52867  53.2171  95.0658 0001421  89.0794 271.0361 15.08840397 70863
STARLINK-4261           
1 52868U 22062AQ  23266.77485700  .00000923  00000+0  76064-4 0  9998
2 52868  53.2165  95.0469 0001266  88.9105 271.2032 15.08843989 70865
STARLINK-4266           
1 52869U 22062AR  23266.49241533  .00001790  00000+0  13050-3 0  9990
2 52869  53.2165  86.2836 0001938  78.3556 281.7653 15.08844852 70466
STARLINK-4195           
1 52870U 22062AS  23266.76749521 -.00000562  00000+0 -17212-4 0  9995
2 52870  53.2175  95.0530 0001538  85.7322 274.3846 15.08841787 70867
STARLINK-4207           
1 52871U 22062AT  23266.74633830 -.00000595  00000+0 -19286-4 0  9998
2 52871  53.2167  85.1438 0001523  89.0603 271.0564 15.08840548 70998
STARLINK-4213           
1 52872U 22062AU  23266.75096747  .00000813  00000+0  69174-4 0  9992
2 52872  53.2159  85.0931 0001233  88.9531 271.1603 15.08842425 70994
STARLINK-4211           
1 52873U 22062AV  23267.46761595  .00000014  00000+0  18969-4 0  9991
2 52873  53.2174  81.9080 0001369  92.0154 268.0995 15.08855209 71106
STARLINK-4210           
1 52874U 22062AW  23266.75001694  .00001170  00000+0  91605-4 0  9992
2 52874  53.2157  85.1278 0001368  96.8868 263.2279 15.08838455 70998
STARLINK-4193           
1 52875U 22062AX  23266.80153722 -.00000122  00000+0  10440-4 0  9994
2 52875  53.2159  84.8962 0001276  96.2106 263.9032 15.08840047 71001
STARLINK-4200           
1 52876U 22062AY  23266.80889604  .00000602  00000+0  55912-4 0  9995
2 52876  53.2168  84.8626 0001331  88.6603 271.4542 15.08843536 71004
STARLINK-4214           
1 52877U 22062AZ  23266.51081515  .00001787  00000+0  13033-3 0  9991
2 52877  53.2162  86.1988 0001590  80.5028 279.6144 15.08842646 70473
STARLINK-4171           
1 52878U 22062BA  23267.46025352 -.00001156  00000+0 -54533-4 0  9997
2 52878  53.2162  81.9378 0001279  84.0664 276.0474 15.08841898 71105
STARLINK-4139           
1 52879U 22062BB  23266.49977478  .00002265  00000+0  16031-3 0  9995
2 52879  53.2160  86.2497 0001333  92.4564 267.6580 15.08845924 70474
STARLINK-4186           
1 52880U 22062BC  23266.76841690  .00001346  00000+0  10264-3 0  9994
2 52880  53.2162  85.0457 0001461  84.3991 275.7168 15.08844931 71006
STARLINK-4192           
1 52881U 22062BD  23266.93060267  .00001954  00000+0  14690-3 0  9999
2 52881  53.2163  84.5902 0001324  92.6239 267.4904 15.07214211 71021
STARLINK-4181           
1 52882U 22062BE  23266.50073745  .00001789  00000+0  13045-3 0  9997
2 52882  53.2156  86.2967 0001226  83.2160 276.8972 15.08843661 70479
STARLINK-4260           
1 52986U 22076A   23267.09225617  .00000747  00000+0  65007-4 0  9998
2 52986  53.2168 163.5963 0001224  93.3103 266.8029 15.08847138 67807
STARLINK-4259           
1 52987U 22076B   23267.13181460  .00001490  00000+0  11167-3 0  9994
2 52987  53.2155 173.4162 0001190  83.7215 276.3913 15.08847633 67677
STARLINK-4291           
1 52988U 22076C   23267.08857296  .00001673  00000+0  12319-3 0  9999
2 52988  53.2170 163.6098 0001276  86.6553 273.4585 15.08845212 67805
STARLINK-4293           
1 52989U 22076D   23267.06189650 -.00000297  00000+0 -54191-6 0  9990
2 52989  53.2165 173.7302 0001542  74.2503 285.8659 15.08845800 67660
STARLINK-4286           
1 52990U 22076E   23267.12445452  .00006645  00000+0  43514-3 0  9999
2 52990  53.2157 173.4525 0001263 123.2558 236.8555 15.08842275 67677
STARLINK-4285           
1 52991U 22076F   23267.12077708  .00018864  00000+0  11999-2 0  9992
2 52991  53.2155 173.4644 0001307 106.6401 253.4735 15.08848250 67673
STARLINK-4269           
1 52992U 22076G   23267.11805044  .00000752  00000+0  65318-4 0  9997
2 52992  53.2165 173.4890 0001211  90.9609 269.1522 15.08846807 67671
STARLINK-4264           
1 52993U 22076H   23266.75369498 -.00000070  00000+0  13719-4 0  9997
2 52993  53.2165 165.1129 0001314  80.2318 279.8822 15.08840687 67758
STARLINK-4256           
1 52994U 22076J   23267.08120914 -.00001267  00000+0 -61546-4 0  9994
2 52994  53.2157 163.6440 0001298  90.2217 269.8924 15.08843816 67804
STARLINK-4296           
1 52995U 22076K   23267.07385185  .00021737  00000+0  13789-2 0  9993
2 52995  53.2168 163.6708 0001344  97.2858 262.8287 15.08860236 67804
STARLINK-4295           
1 52996U 22076L   23267.01129196  .00010641  00000+0  68540-3 0  9994
2 52996  53.2159 163.9562 0001294  91.9077 268.2063 15.08852446 67798
STARLINK-4301           
1 52997U 22076M   23267.08621624  .00010390  00000+0  46118-3 0  9993
2 52997  53.2283 147.8630 0006150 117.4117 242.7508 15.22123132 68037
STARLINK-4254           
1 52998U 22076N   23267.12904468 -.00001973  00000+0 -10583-3 0  9995
2 52998  53.2169 163.3387 0001254  91.2101 268.9035 15.08855370 67815
STARLINK-4217           
1 52999U 22076P   23266.72425747  .00012906  00000+0  82752-3 0  9992
2 52999  53.2163 165.2446 0001193  86.9976 273.1153 15.08837670 67755
STARLINK-4194           
1 53000U 22076Q   23267.13641123 -.00000402  00000+0 -71470-5 0  9997
2 53000  53.2173 163.3922 0001309  92.0177 268.0965 15.08851637 67818
STARLINK-4190           
1 53001U 22076R   23267.11801664  .00005604  00000+0  36985-3 0  9991
2 53001  53.2164 163.4764 0001513  75.1765 284.9395 15.08844838 67815
STARLINK-4121           
1 53002U 22076S   23267.06649153  .00001207  00000+0  93891-4 0  9994
2 53002  53.2174 163.7057 0001532 104.3540 255.7622 15.08849719 67803
STARLINK-4255           
1 53003U 22076T   23266.71321619  .00008364  00000+0  54284-3 0  9993
2 53003  53.2160 165.2934 0001902  85.8191 274.3019 15.08847718 67754
STARLINK-4253           
1 53004U 22076U   23267.12537285  .00000003  00000+0  18303-4 0  9993
2 53004  53.2166 163.4426 0001379  91.7216 268.3934 15.08850147 67815
